{"type":"FeatureCollection","features":[{"type":"Feature","id":1,"geometry":{"type":"Polygon","coordinates":[[[-119.264824735842,37.741893902382],[-119.270565881268,37.7396659593235],[-119.27784214373,37.7419104051181],[-119.28224230391,37.744228020093],[-119.284442034938,37.7447496312724],[-119.28995692706,37.749886999973],[-119.290046106209,37.7519861582934],[-119.29123961635,37.7560726001122],[-119.292770592103,37.7622146252699],[-119.293780227545,37.7648052013398],[-119.300354473993,37.7686806960321],[-119.304029043063,37.7713651917208],[-119.30906696153,37.778432527945],[-119.309991920671,37.7794794235174],[-119.310681076572,37.7802594077866],[-119.310700028268,37.7802808564842],[-119.311394737567,37.7810671043326],[-119.322325844414,37.7934358566675],[-119.322469793979,37.7935987041683],[-119.324994642401,37.7964548796766],[-119.325732338925,37.7969719265835],[-119.325750383194,37.7969845735241],[-119.330006796914,37.7999676410473],[-119.330059986959,37.8000049170472],[-119.35169943866,37.8151646925426],[-119.353559658887,37.816893086712],[-119.353615106785,37.8169444641449],[-119.365014513129,37.8275328237387],[-119.365092385709,37.8276051413413],[-119.373280095147,37.835207773339],[-119.373401150014,37.8353201619998],[-119.373501279659,37.8354131238888],[-119.382505399044,37.8377134509875],[-119.382525234104,37.8377185169362],[-119.402785866767,37.842891610887],[-119.405841777529,37.8447108650186],[-119.406154654498,37.8448971180614],[-119.434623954625,37.8618373988703],[-119.438571011501,37.8621608839016],[-119.438724869915,37.8621734907375],[-119.443389785798,37.8625556309292],[-119.443421763567,37.8625582495056],[-119.466671765323,37.8644600717782],[-119.467370976037,37.8645171952532],[-119.469881337079,37.8647222489775],[-119.469999815924,37.864731925533],[-119.472412943743,37.8649289843498],[-119.509442721584,37.876322191441],[-119.50947728016,37.8763328171087],[-119.51072579789,37.8767166973124],[-119.525127390585,37.8872298644812],[-119.525170696302,37.8872614709555],[-119.526155412346,37.88798014166],[-119.52634852934,37.8881210806212],[-119.530728129456,37.8913171436471],[-119.530810647283,37.8913773562567],[-119.531770380888,37.8920776721203],[-119.531943031335,37.8922036524281],[-119.539288075753,37.8975626084713],[-119.578249778583,37.8915306881631],[-119.586890940392,37.8781729437528],[-119.586935437448,37.878104145929],[-119.595936581207,37.8641841762249],[-119.613014075928,37.8549382303649],[-119.613165989192,37.8548559621661],[-119.617463807552,37.852528322485],[-119.621159424179,37.8515320445198],[-119.621227299839,37.8515137451407],[-119.638614083832,37.8468246553924],[-119.638653355663,37.846814060923],[-119.645960799731,37.8448423664999],[-119.653086618559,37.823172153486],[-119.65311180795,37.8230955285462],[-119.653617469189,37.8215572751137],[-119.670401637276,37.8024938772117],[-119.677761399336,37.8000785785624],[-119.677846917821,37.8000505102742],[-119.694325302427,37.7946404781728],[-119.69445184326,37.7945989212235],[-119.702216500167,37.7920486332633],[-119.716700007548,37.7879367560945],[-119.716829885132,37.7878998737268],[-119.743728100551,37.7802575726076],[-119.748756361812,37.7781999319041],[-119.748769355171,37.778194614006],[-119.749851256027,37.7777518409627],[-119.767107884338,37.7706874584378],[-119.767113360421,37.7706852157036],[-119.76934272924,37.76977229532],[-119.77119986743,37.7690117540481],[-119.771779878702,37.7687742171641],[-119.771788759951,37.7687705800999],[-119.775460542553,37.7672667405219],[-119.785332473169,37.7648192390183],[-119.785375460907,37.7648085789842],[-119.799972445423,37.7611878277707],[-119.802779317518,37.760491344792],[-119.803958668368,37.7601986827323],[-119.804509991993,37.7602667883283],[-119.804549092201,37.7602716179554],[-119.804786617172,37.7603009591356],[-119.80494127513,37.7603200629734],[-119.827095050503,37.7630544661795],[-119.827172004469,37.7630639568459],[-119.82754690306,37.7631101925261],[-119.834476263042,37.7639645621927],[-119.841133078058,37.7643480013138],[-119.841218451804,37.7643529163022],[-119.84184095104,37.7643887529717],[-119.855543807658,37.765176792336],[-119.859995703223,37.7654324758204],[-119.860073956417,37.7654369687471],[-119.872982324465,37.7661773757144],[-119.873082719321,37.7661831285937],[-119.87383454348,37.7662262078906],[-119.876848405911,37.7663988552534],[-119.912060892634,37.7611404445448],[-119.912487778861,37.7612173709668],[-119.913078716211,37.7613238572982],[-119.914474803173,37.7615754184218],[-119.914605834789,37.7615990279445],[-119.915790808592,37.7618125330851],[-119.915958387446,37.7618427254347],[-119.92040489198,37.7626437606423],[-119.920531709948,37.7626666043585],[-119.930156438333,37.7643998593946],[-119.930326376768,37.7644304549006],[-119.942348772274,37.7665942725354],[-119.946171905671,37.7689159573585],[-119.94623493005,37.7689542282242],[-119.946455791999,37.7690883429829],[-119.94653871287,37.7691386954385],[-119.94853475143,37.7703507162772],[-119.94871842767,37.7704622438683],[-119.950041616798,37.7712656565623],[-119.950123728859,37.7713155132405],[-119.958093447638,37.7761538796121],[-119.958290102631,37.7762732528045],[-119.96851075709,37.7824764219744],[-119.970937611838,37.7836427594805],[-119.971111609296,37.7837263786919],[-119.974380092123,37.7852970570802],[-119.974408718556,37.7853108128094],[-119.982374859927,37.7891383105039],[-119.982697580713,37.7892933489742],[-119.983071688549,37.7894730720792],[-119.983650838688,37.7897512949222],[-119.984116613424,37.7899750484752],[-119.984875001126,37.7903393650879],[-119.991071559437,37.7933157685929],[-119.991165599699,37.7933609347297],[-119.998951598132,37.7970999969341],[-119.999326266025,37.7972799013476],[-119.99966509474,37.7974425952209],[-119.999724007137,37.7974708825915],[-120.000628963078,37.7979054012448],[-120.003125602362,37.7989041350782],[-120.003298583293,37.7989733300534],[-120.004363893619,37.7993994609664],[-120.004697921442,37.7995330718538],[-120.030492200192,37.8098464753906],[-120.032786508215,37.8106693735805],[-120.032827876184,37.8106842102133],[-120.056255739808,37.8190835081589],[-120.056285562379,37.8190941960944],[-120.057245785433,37.819438314539],[-120.074862111753,37.8186368183903],[-120.088571366278,37.8180112808601],[-120.091524264324,37.8148104536458],[-120.091550667388,37.8147818323229],[-120.09792802704,37.8078678328276],[-120.097964811619,37.8078279482414],[-120.099388069236,37.806284704488],[-120.099465547726,37.8062006924828],[-120.105665641009,37.7994769468395],[-120.105906233101,37.7992160036689],[-120.106019297772,37.7990933751734],[-120.106224610477,37.7988706934148],[-120.10708341198,37.7979392192834],[-120.113964743593,37.7938903767922],[-120.114068553827,37.7938292903644],[-120.116238226488,37.7925525194499],[-120.116583941612,37.7923490716103],[-120.128664558751,37.7852384979417],[-120.167821180705,37.7909614111784],[-120.167991235613,37.7908275401969],[-120.168016893345,37.7908073417029],[-120.185758027698,37.7768371132906],[-120.18578749744,37.7768139005589],[-120.191911263123,37.771989926439],[-120.214294920932,37.7649340914241],[-120.214538401222,37.7648573106738],[-120.216202034532,37.7643326705887],[-120.216516943027,37.7642333589355],[-120.22006590264,37.763114053622],[-120.220217455698,37.7630662526869],[-120.225746336384,37.7613222149724],[-120.225937035644,37.7612620550205],[-120.227475598137,37.7607766657542],[-120.227600934225,37.7607371235477],[-120.232319153446,37.7592484400824],[-120.239132680935,37.7544429225917],[-120.239418964176,37.7542409875886],[-120.242188222387,37.7522875507408],[-120.24246249675,37.7520940687043],[-120.2431816139,37.751586772361],[-120.243371553201,37.7514527786536],[-120.243759114221,37.7511793701796],[-120.243988981646,37.7510172065742],[-120.260688496912,37.7392331940104],[-120.260959011153,37.739042255623],[-120.261113656817,37.7389331003902],[-120.271169921501,37.7378185563377],[-120.271231464901,37.7378117323832],[-120.284896092384,37.7362958579767],[-120.284990941677,37.7362853305983],[-120.290265863597,37.7356997224589],[-120.295775382146,37.7334240447512],[-120.296072091756,37.7333014793762],[-120.33389047184,37.7176700783209],[-120.321199811091,37.6878657021343],[-120.321125124373,37.6876902242326],[-120.320047946262,37.6851592735413],[-120.321011901081,37.6577884894363],[-120.346132796242,37.6687053726547],[-120.346595798346,37.6689065017453],[-120.356533307083,37.6732226874122],[-120.359189957009,37.6735598692335],[-120.359469994995,37.6735954083047],[-120.362307763701,37.6739555020374],[-120.362346280843,37.6739603887622],[-120.389363768594,37.6773851761633],[-120.389426956437,37.6642498982052],[-120.389427571696,37.6641219964852],[-120.389463065589,37.6567415283866],[-120.390760304596,37.6571106057591],[-120.39331078549,37.6571022477747],[-120.395545126502,37.6576002157867],[-120.397464649911,37.6588572202191],[-120.400019248881,37.6596067410911],[-120.405120336601,37.6595895769911],[-120.405585373667,37.6595089504518],[-120.409579653085,37.6588163558553],[-120.411844547775,37.6579091367763],[-120.412163880138,37.6580817714697],[-120.412365500918,37.6581907694085],[-120.466611252744,37.7052727531939],[-120.466702756521,37.705352102273],[-120.465023975405,37.7053586355074],[-120.462792364088,37.7055441296839],[-120.461835387436,37.7056236622659],[-120.461525669185,37.7071409007265],[-120.461220632285,37.7094161789342],[-120.462509212628,37.7114325913851],[-120.46283449014,37.7124420243563],[-120.462521664488,37.7134539269215],[-120.46221039726,37.7147184952683],[-120.462218175066,37.7159818556772],[-120.465410328589,37.7162221656414],[-120.466691285185,37.716975229004],[-120.468611940009,37.7179783846593],[-120.469894546879,37.718984069422],[-120.471815314307,37.7199872104017],[-120.47255431869,37.7197889091791],[-120.473726573655,37.7194743405435],[-120.475636204613,37.7187087161331],[-120.47754416582,37.7176904308625],[-120.479128245595,37.7159153756992],[-120.479755064538,37.7141441560075],[-120.479894895442,37.712977076048],[-120.480805212185,37.7132949122806],[-120.497545391932,37.7191380148952],[-120.497341256515,37.7198838962496],[-120.497347952103,37.7208945788361],[-120.497996170072,37.7224079302794],[-120.498958469015,37.7231619424657],[-120.499915681556,37.7231579498071],[-120.500003370261,37.7230777473673],[-120.501757791488,37.7214730497516],[-120.502258623813,37.7218084717509],[-120.509798856241,37.7268577597796],[-120.519084268592,37.7337996409222],[-120.525945885103,37.7505756921027],[-120.526138046014,37.7510453958142],[-120.524037748561,37.7503437512281],[-120.522110205335,37.7485834450615],[-120.521459548982,37.7468175701871],[-120.52017402427,37.7455597682544],[-120.518250229701,37.7443047539454],[-120.516264089032,37.7435292941596],[-120.515689839452,37.7433050779805],[-120.514737534467,37.7440672073068],[-120.516033312082,37.7468410722825],[-120.516689117879,37.7493649856527],[-120.516711733276,37.7526496610649],[-120.516720433631,37.7539130012428],[-120.518642742698,37.7549154216845],[-120.520245833111,37.755919141589],[-120.521212296809,37.757178336192],[-120.522815487082,37.7581820350434],[-120.523643472922,37.7580143615196],[-120.526641005337,37.757407282997],[-120.528226510777,37.7558842136716],[-120.529102731494,37.7558803466416],[-120.531099553506,37.7558715101077],[-120.533608396863,37.7560808743601],[-120.53557741898,37.757075774313],[-120.535586715907,37.758378278679],[-120.534951856784,37.7588864699978],[-120.531126380025,37.7596615439387],[-120.529223353761,37.7614386763216],[-120.531153206618,37.7634515259874],[-120.532118086727,37.7644579538806],[-120.533404159209,37.7657156086302],[-120.535644429798,37.7664636491082],[-120.538519713806,37.7667034316993],[-120.540754615086,37.7666933651304],[-120.541714240321,37.7669417122063],[-120.542346994006,37.7667716078498],[-120.544582232756,37.7661706711724],[-120.545237738371,37.7661676897353],[-120.546817099159,37.7661604915946],[-120.548418960058,37.7669112068646],[-120.548754860574,37.7691837354266],[-120.549406412604,37.7709494791494],[-120.55036985653,37.7717030900637],[-120.551044801979,37.7713937489097],[-120.552597437844,37.7706821207737],[-120.554182702815,37.7691587509076],[-120.554815620604,37.7683978021875],[-120.555363954743,37.767070177831],[-120.556130453485,37.767457226104],[-120.563048583268,37.7709501713818],[-120.590265629208,37.7867104039495],[-120.593859072516,37.7893979457804],[-120.597989142312,37.8087301642532],[-120.593972531411,37.8108879310318],[-120.569587562653,37.8239822456418],[-120.568000053336,37.8279824234333],[-120.566658507793,37.831362477115],[-120.564733271446,37.8362125942332],[-120.5595128903,37.84936063511],[-120.520409405088,37.8422248597448],[-120.519350206536,37.8419898134622],[-120.482731410682,37.83385708375],[-120.48008621839,37.8481964955037],[-120.479683107543,37.8503812437373],[-120.47921004722,37.8529449342453],[-120.479045625525,37.8538359572607],[-120.476336968242,37.8685114328464],[-120.475319970485,37.8740200175773],[-120.467975784446,37.8887034227195],[-120.463000531112,37.898647037425],[-120.46287208402,37.9035788099564],[-120.46239134511,37.9220311311777],[-120.459345025206,37.9280262506184],[-120.456187821542,37.934238494843],[-120.447288030178,37.9517440989184],[-120.445674503157,37.9558695239846],[-120.440777759507,37.9683864830696],[-120.43696100777,37.978139749335],[-120.436733121011,37.9787220035092],[-120.434194042387,37.9819832591393],[-120.427916143435,37.9900452990595],[-120.425224902215,37.9935007424145],[-120.419876866231,38.0003662767361],[-120.415055648122,38.0038383803389],[-120.394424089031,38.0186908240722],[-120.392717902019,38.0210734168728],[-120.370215671679,38.0524800556424],[-120.345707704683,38.0490551376098],[-120.335154923015,38.0475787816492],[-120.330221047832,38.0479666695742],[-120.327605551914,38.0481722088793],[-120.325648783616,38.0483259442662],[-120.31714668786,38.0489935421806],[-120.313899641557,38.0492483439928],[-120.300207750595,38.0503217881198],[-120.297145137842,38.051016842814],[-120.272705846628,38.0565600440478],[-120.256714713783,38.0601839438154],[-120.256522272772,38.0601744763699],[-120.250459336444,38.0598760555287],[-120.233395628479,38.0590345171708],[-120.211423583634,38.0579473188279],[-120.193100381762,38.0658108488185],[-120.192764791224,38.0659548283325],[-120.18223252143,38.0704727688895],[-120.178533008279,38.0720593698346],[-120.175809727828,38.0736859342814],[-120.157983564616,38.0843299013104],[-120.15258872294,38.0875500331014],[-120.148203403984,38.0911220969016],[-120.126106845118,38.1091132442417],[-120.123941487788,38.1114206829098],[-120.101699228775,38.1351119048815],[-120.07809744534,38.1477823503042],[-120.076275543617,38.1487600539429],[-120.057047909688,38.160622353786],[-120.05227677633,38.1635648002823],[-120.048276682322,38.1660314081089],[-120.045227078703,38.1675801076586],[-120.039734188328,38.17036924132],[-120.035040884577,38.1727520044342],[-120.025170862737,38.1777618666903],[-120.022756351491,38.1789872080379],[-120.019494806898,38.1801206951968],[-119.992237870001,38.1895885238674],[-119.991767286934,38.1897519079353],[-119.965621614732,38.1926943427196],[-119.960589202801,38.1932600133993],[-119.960528597659,38.1932668239355],[-119.955348993359,38.1938488082291],[-119.954870590286,38.1939025506485],[-119.951338052073,38.1938466189864],[-119.950546333425,38.1938340688598],[-119.949446915363,38.1938166333264],[-119.934175880643,38.1935734106755],[-119.921946749289,38.1933772394104],[-119.910755424781,38.195518999948],[-119.906436197737,38.1963452894432],[-119.896253725943,38.1982925620006],[-119.882682051874,38.2008864824065],[-119.855830939299,38.2017959191998],[-119.855103192371,38.2018204841814],[-119.840359752126,38.2023171953296],[-119.840131503867,38.2023248709657],[-119.80049002263,38.21023369685],[-119.799863400544,38.2102959486074],[-119.767087270442,38.2135474265437],[-119.763956815576,38.2138574951667],[-119.752437627834,38.2126249465536],[-119.72980381792,38.2101998109995],[-119.725936479927,38.2097849982399],[-119.678412971488,38.2061917938993],[-119.658441966166,38.2207739613054],[-119.653095067975,38.2246765646198],[-119.627459259556,38.2228757346685],[-119.627283843525,38.220441920742],[-119.627282638171,38.2204252047715],[-119.6272714909,38.220270536623],[-119.627264195943,38.2201693203447],[-119.626674174634,38.2119818792591],[-119.626668785648,38.2119070866319],[-119.626607444725,38.2110557954916],[-119.626604944884,38.2110211020937],[-119.626202787712,38.2054393854116],[-119.626199931149,38.2053997423814],[-119.625686998432,38.198279305657],[-119.604761584108,38.1878624622587],[-119.604686172317,38.1878249096919],[-119.595717618844,38.1833582788176],[-119.595551359565,38.1832754650254],[-119.594303733619,38.1826540087718],[-119.58218796732,38.1716531918128],[-119.582026910378,38.1715069262423],[-119.581237802461,38.1707902774919],[-119.581147690586,38.1707084389272],[-119.56711623142,38.1579622129647],[-119.560161445128,38.1543505594704],[-119.560054914296,38.1542952318742],[-119.548001274197,38.1480339233164],[-119.547981981218,38.148023899866],[-119.541888644525,38.1448578344153],[-119.534166759343,38.144633742049],[-119.533128021315,38.1446035594989],[-119.532094611774,38.144573522727],[-119.531010146115,38.1445419927482],[-119.509588309166,38.1439171598282],[-119.504916775738,38.1415120787339],[-119.504850917673,38.1414781702871],[-119.488315077678,38.1329621847522],[-119.488254564236,38.1329310129032],[-119.487359337552,38.1324698481853],[-119.487065589739,38.1323185252494],[-119.476523509803,38.1268869359142],[-119.470738226079,38.1230829005222],[-119.47068594689,38.123048522047],[-119.443886647387,38.1054183013829],[-119.440418112645,38.1055097843815],[-119.440041990958,38.1055196987652],[-119.40661692375,38.1063960504863],[-119.388190326412,38.097938908188],[-119.388156139441,38.0979232131222],[-119.388063604687,38.097880730696],[-119.387940899719,38.0978243978359],[-119.383321570233,38.0957035343238],[-119.383069769833,38.0955879167652],[-119.382605833896,38.0953748930491],[-119.378588987802,38.0937755841349],[-119.378429823242,38.0937122083669],[-119.375500900105,38.0925459225077],[-119.375499272871,38.092545274465],[-119.368438505562,38.089733262478],[-119.368249145205,38.0896578393869],[-119.361394647823,38.0869273609994],[-119.36135661609,38.0869122099983],[-119.358740924172,38.0858700967647],[-119.354962650465,38.0831380327687],[-119.354667485619,38.0829245864936],[-119.337631252322,38.0706016535891],[-119.337572342231,38.0705590302555],[-119.333432589654,38.0675636131288],[-119.331815842035,38.0656725617293],[-119.331735659367,38.0655787718215],[-119.322405156035,38.0546628946115],[-119.322255272664,38.0544875125867],[-119.314232989114,38.0450989601869],[-119.314052232354,38.044887385323],[-119.310670963848,38.0409293630235],[-119.310609231646,38.0408570961231],[-119.307958875579,38.0377542941832],[-119.30821674954,38.0307470971884],[-119.308219175767,38.0306811623718],[-119.30865358879,38.0188738744037],[-119.308676743012,38.0182444490477],[-119.308790854452,38.0151422395154],[-119.308792287844,38.0151032781782],[-119.308935352295,38.0112135967083],[-119.312196032184,37.9990228382493],[-119.312197855504,37.9990160191192],[-119.3164789281,37.9830041337402],[-119.316480947757,37.9829965780204],[-119.317646657499,37.9786354279444],[-119.317450619606,37.9781849722971],[-119.317442426251,37.9781661444649],[-119.308787157874,37.9582722785798],[-119.303791370463,37.9467845222328],[-119.301223849319,37.9451494830932],[-119.301198016112,37.9451330316046],[-119.293200518564,37.9400392822422],[-119.293184427966,37.9400290322434],[-119.289664367272,37.9377866533356],[-119.283484333307,37.9338492208121],[-119.283462046634,37.9338350202724],[-119.270453197264,37.9255444048985],[-119.263802411148,37.9217851486922],[-119.263736137616,37.921747685145],[-119.243793762,37.9104710651226],[-119.24377747579,37.9104618534026],[-119.241470717286,37.9091570394493],[-119.24146679755,37.9091554197285],[-119.241463335673,37.9091534619613],[-119.2219254866,37.9010797583986],[-119.221843236347,37.9010457590229],[-119.217915610726,37.8994221320181],[-119.217909324441,37.8994195335505],[-119.21761782754,37.8983658666991],[-119.217606706124,37.8983256630837],[-119.211805932802,37.8773514091613],[-119.21178295992,37.8772683215317],[-119.211017155737,37.874498447228],[-119.209478803683,37.8478997955649],[-119.209459722845,37.8475697786796],[-119.209379991163,37.8461906573072],[-119.209536324252,37.8267769371637],[-119.209536687519,37.8267319128923],[-119.209594975614,37.8194907776733],[-119.208787672532,37.8132033993805],[-119.208784025219,37.8131749962561],[-119.206585767233,37.7960493122039],[-119.211100919092,37.7922859342151],[-119.211123450447,37.7922671517632],[-119.21714854121,37.7872443838192],[-119.21739878379,37.7870357505088],[-119.227232329738,37.7788359304825],[-119.22732693196,37.7787570321392],[-119.230203906219,37.7763575340206],[-119.230284062585,37.7762906776884],[-119.231678573609,37.7751275213521],[-119.231719345388,37.7750935133271],[-119.235967050898,37.7715501952414],[-119.25228385063,37.7547855835391],[-119.252334373254,37.7547336585971],[-119.252347489646,37.7547201784254],[-119.254218431351,37.7527972630048],[-119.254238777813,37.7527763512515],[-119.264824735842,37.741893902382]]]},"properties":{"OBJECTID_1":1,"OBJECTID":15,"WIP_AA":"Tuolumne","POLY_AREA":1019451.02339,"Shape__Area":4125575568.5032029,"Shape__Length":352053.045538481}}]}